[{"OBJECT_NAME":"OBJECT L","OBJECT_ID":"2023-085L","EPOCH":"2026-03-09T23:02:21.999840","MEAN_MOTION":15.29079976,"ECCENTRICITY":0.0005428,"INCLINATION":97.486,"RA_OF_ASC_NODE":178.8598,"ARG_OF_PERICENTER":50.8528,"MEAN_ANOMALY":309.3193,"EPHEMERIS_TYPE":0,"CLASSIFICATION_TYPE":"U","NORAD_CAT_ID":57014,"ELEMENT_SET_NO":999,"REV_AT_EPOCH":15144,"BSTAR":0.00063462603,"MEAN_MOTION_DOT":0.00017871,"MEAN_MOTION_DDOT":0},{"OBJECT_NAME":"STARLINK-30146","OBJECT_ID":"2023-105N","EPOCH":"2026-03-09T22:00:01.999584","MEAN_MOTION":15.24370985,"ECCENTRICITY":9.65e-5,"INCLINATION":42.9993,"RA_OF_ASC_NODE":258.5873,"ARG_OF_PERICENTER":307.2589,"MEAN_ANOMALY":147.706,"EPHEMERIS_TYPE":0,"CLASSIFICATION_TYPE":"U","NORAD_CAT_ID":57442,"ELEMENT_SET_NO":999,"REV_AT_EPOCH":578,"BSTAR":0.033241649,"MEAN_MOTION_DOT":0.00895133,"MEAN_MOTION_DDOT":0}]
